$GPTXT,01,01,02,u-blox ag - www.u-blox.com*50
$GPTXT,01,01,02,HW  UBX-G70xx   00070000 *77
$GPTXT,01,01,02,ROM CORE 1.00 (59842) Jun 27 2012 17:43:52*59
$GPTXT,01,01,02,PROTVER 14.00*1E
$GPTXT,01,01,02,ANTSUPERV=AC SD PDoS SR*20
$GPTXT,01,01,02,ANTSTATUS=OK*3B
$GPTXT,01,01,02,LLC FFFFFFFF-FFFFFFFD-FFFFFFFF-FFFFFFFF-FFFFFFF9*53
$GPRMC,085903.00,V,,,,,,,290726,,,N*72
$GPVTG,,,,,,,,,N*30
$GPGGA,085903.00,,,,,0,00,99.99,,,,,,*61
$GPGSA,A,1,,,,,,,,,,,,,99.99,99.99,99.99*30
$GPGSV,2,1,08,03,,,16,05,,,22,07,,,13,14,,,21*70
$GPGSV,2,2,08,18,,,12,20,,,19,31,,,18,32,,,26*7F
$GPGLL,,,,,085903.00,V,N*4D
$GPRMC,085904.00,V,,,,,,,290726,,,N*75
$GPVTG,,,,,,,,,N*30
$GPGGA,085904.00,,,,,0,00,99.99,,,,,,*66
$GPGSA,A,1,,,,,,,,,,,,,99.99,99.99,99.99*30
$GPGSV,3,1,09,03,,,10,05,,,22,14,,,21,16,,,21*77
$GPGSV,3,2,09,18,,,09,20,,,16,21,,,25,31,,,18*7B
$GPGSV,3,3,09,32,,,27*74
$GPGLL,,,,,085904.00,V,N*4A
$GPRMC,085905.00,V,,,,,,,290726,,,N*74
$GPVTG,,,,,,,,,N*30
$GPGGA,085905.00,,,,,0,00,99.99,,,,,,*67
$GPGSA,A,1,,,,,,,,,,,,,99.99,99.99,99.99*30
$GPGSV,3,1,11,03,,,09,05,,,22,14,,,22,16,,,21*75
$GPGSV,3,2,11,18,,,08,20,,,11,21,,,24,23,,,26*7B
$GPGSV,3,3,11,24,,,25,31,,,20,32,,,27*7C
$GPGLL,,,,,085905.00,V,N*4B
$GPRMC,085906.00,V,,,,,,,290726,,,N*77
$GPVTG,,,,,,,,,N*30
$GPGGA,085906.00,,,,,0,00,99.99,,,,,,*64
$GPGSA,A,1,,,,,,,,,,,,,99.99,99.99,99.99*30
$GPGSV,3,1,12,05,,,22,07,,,20,14,,,21,16,,,22*79
$GPGSV,3,2,12,18,,,08,20,,,09,21,,,23,23,,,25*75
$GPGSV,3,3,12,24,,,23,25,,,21,31,,,21,32,,,27*7C
$GPGLL,,,,,085906.00,V,N*48
$GPRMC,085907.00,V,,,,,,,290726,,,N*76
$GPVTG,,,,,,,,,N*30
$GPGGA,085907.00,,,,,0,00,99.99,,,,,,*65
$GPGSA,A,1,,,,,,,,,,,,,99.99,99.99,99.99*30
$GPGSV,3,1,12,05,,,22,07,,,21,14,,,21,16,,,21*7B
$GPGSV,3,2,12,18,,,08,20,,,09,21,,,22,22,,,08*7A
$GPGSV,3,3,12,24,,,23,25,,,24,31,,,21,32,,,27*79
$GPGLL,,,,,085907.00,V,N*49
$GPRMC,085908.00,V,,,,,,,290726,,,N*79
$GPVTG,,,,,,,,,N*30
$GPGGA,085908.00,,,,,0,00,99.99,,,,,,*6A
$GPGSA,A,1,,,,,,,,,,,,,99.99,99.99,99.99*30
$GPGSV,2,1,07,07,,,21,14,,,21,16,,,21,20,,,09*70
$GPGSV,2,2,07,26,,,28,31,,,20,32,,,27*74
$GPGLL,,,,,085908.00,V,N*46
$GPRMC,085909.00,V,,,,,,,290726,,,N*78
$GPVTG,,,,,,,,,N*30
$GPGGA,085909.00,,,,,0,00,99.99,,,,,,*6B
$GPGSA,A,1,,,,,,,,,,,,,99.99,99.99,99.99*30
$GPGSV,2,1,06,07,,,21,14,,,21,16,,,21,20,,,09*71
$GPGSV,2,2,06,31,,,20,32,,,28*74
$GPGLL,,,,,085909.00,V,N*47
$GPRMC,085910.00,V,,,,,,,290726,,,N*70
$GPVTG,,,,,,,,,N*30
$GPGGA,085910.00,,,,,0,00,99.99,,,,,,*63
$GPGSA,A,1,,,,,,,,,,,,,99.99,99.99,99.99*30
$GPGSV,2,1,07,07,,,21,14,,,21,16,,,22,20,,,08*72
$GPGSV,2,2,07,22,,,22,31,,,20,32,,,27*7A
$GPGLL,,,,,085910.00,V,N*4F
$GPRMC,085911.00,V,,,,,,,290726,,,N*71
$GPVTG,,,,,,,,,N*30
$GPGGA,085911.00,,,,,0,00,99.99,,,,,,*62
$GPGSA,A,1,,,,,,,,,,,,,99.99,99.99,99.99*30
$GPGSV,2,1,07,07,,,19,14,,,21,16,,,21,22,,,21*73
$GPGSV,2,2,07,28,,,25,31,,,20,32,,,27*77
$GPGLL,,,,,085911.00,V,N*4E
$GPRMC,085912.00,V,,,,,,,290726,,,N*72
$GPVTG,,,,,,,,,N*30
$GPGGA,085912.00,,,,,0,00,99.99,,,,,,*61
$GPGSA,A,1,,,,,,,,,,,,,99.99,99.99,99.99*30
$GPGSV,2,1,05,14,,,20,16,,,21,22,,,21,31,,,20*7F
$GPGSV,2,2,05,32,,,27*78
$GPGLL,,,,,085912.00,V,N*4D
$GPRMC,085913.00,V,,,,,,,290726,,,N*73
$GPVTG,,,,,,,,,N*30
$GPGGA,085913.00,,,,,0,00,99.99,,,,,,*60
$GPGSA,A,1,,,,,,,,,,,,,99.99,99.99,99.99*30
$GPGSV,2,1,06,14,,,17,16,,,21,22,,,21,29,,,28*79
$GPGSV,2,2,06,31,,,20,32,,,27*7B
$GPGLL,,,,,085913.00,V,N*4C
$GPRMC,085914.00,V,,,,,,,290726,,,N*74
$GPVTG,,,,,,,,,N*30
$GPGGA,085914.00,,,,,0,00,99.99,,,,,,*67
$GPGSA,A,1,,,,,,,,,,,,,99.99,99.99,99.99*30
$GPGSV,2,1,05,14,,,15,16,,,19,22,,,21,31,,,19*78
$GPGSV,2,2,05,32,,,27*78
$GPGLL,,,,,085914.00,V,N*4B
$GPRMC,085915.00,V,,,,,,,290726,,,N*75
$GPVTG,,,,,,,,,N*30
$GPGGA,085915.00,,,,,0,00,99.99,,,,,,*66
$GPGSA,A,1,,,,,,,,,,,,,99.99,99.99,99.99*30
$GPGSV,1,1,04,14,,,15,22,,,21,31,,,20,32,,,27*7B
$GPGLL,,,,,085915.00,V,N*4A
$GPRMC,085916.00,V,,,,,,,290726,,,N*76
$GPVTG,,,,,,,,,N*30
$GPGGA,085916.00,,,,,0,00,99.99,,,,,,*65
$GPGSA,A,1,,,,,,,,,,,,,99.99,99.99,99.99*30
$GPGSV,1,1,03,22,,,19,31,,,20,32,,,27*76
$GPGLL,,,,,085916.00,V,N*49
$GPRMC,085917.00,V,,,,,,,290726,,,N*77
$GPVTG,,,,,,,,,N*30
$GPGGA,085917.00,,,,,0,00,99.99,,,,,,*64
$GPGSA,A,1,,,,,,,,,,,,,99.99,99.99,99.99*30
$GPGSV,1,1,03,22,,,16,31,,,20,32,,,27*79
$GPGLL,,,,,085917.00,V,N*48
$GPRMC,085918.00,V,,,,,,,290726,,,N*78
$GPVTG,,,,,,,,,N*30
$GPGGA,085918.00,,,,,0,00,99.99,,,,,,*6B
$GPGSA,A,1,,,,,,,,,,,,,99.99,99.99,99.99*30
$GPGSV,1,1,03,14,,,21,31,,,20,32,,,27*78
$GPGLL,,,,,085918.00,V,N*47
$GPRMC,085919.00,V,,,,,,,290726,,,N*79
$GPVTG,,,,,,,,,N*30
$GPGGA,085919.00,,,,,0,00,99.99,,,,,,*6A
$GPGSA,A,1,,,,,,,,,,,,,99.99,99.99,99.99*30
$GPGSV,1,1,03,14,,,21,31,,,21,32,,,27*79
$GPGLL,,,,,085919.00,V,N*46
$GPRMC,085920.00,V,,,,,,,290726,,,N*73
$GPVTG,,,,,,,,,N*30
$GPGGA,085920.00,,,,,0,00,99.99,,,,,,*60
$GPGSA,A,1,,,,,,,,,,,,,99.99,99.99,99.99*30
$GPGSV,1,1,04,01,,,24,14,,,21,31,,,22,32,,,27*7A
$GPGLL,,,,,085920.00,V,N*4C
$GPRMC,085921.00,V,,,,,,,290726,,,N*72
$GPVTG,,,,,,,,,N*30
$GPGGA,085921.00,,,,,0,00,99.99,,,,,,*61
$GPGSA,A,1,,,,,,,,,,,,,99.99,99.99,99.99*30
$GPGSV,2,1,05,01,,,24,14,,,21,22,,,07,31,,,22*7B
$GPGSV,2,2,05,32,,,27*78
$GPGLL,,,,,085921.00,V,N*4D
$GPRMC,085922.00,V,,,,,,,290726,,,N*71
$GPVTG,,,,,,,,,N*30
$GPGGA,085922.00,,,,,0,00,99.99,,,,,,*62
$GPGSA,A,1,,,,,,,,,,,,,99.99,99.99,99.99*30
$GPGSV,2,1,05,01,,,23,14,,,20,22,,,08,31,,,22*72
$GPGSV,2,2,05,32,,,27*78
$GPGLL,,,,,085922.00,V,N*4E
$GPRMC,085923.00,V,,,,,,,290726,,,N*70
$GPVTG,,,,,,,,,N*30
$GPGGA,085923.00,,,,,0,00,99.99,,,,,,*63
$GPGSA,A,1,,,,,,,,,,,,,99.99,99.99,99.99*30
$GPGSV,2,1,05,01,,,22,02,,,24,14,,,18,31,,,23*75
$GPGSV,2,2,05,32,,,27*78
$GPGLL,,,,,085923.00,V,N*4F
$GPRMC,085924.00,V,,,,,,,290726,,,N*77
$GPVTG,,,,,,,,,N*30
$GPGGA,085924.00,,,,,0,00,99.99,,,,,,*64
$GPGSA,A,1,,,,,,,,,,,,,99.99,99.99,99.99*30
$GPGSV,2,1,06,01,,,22,02,,,23,03,,,26,14,,,15*78
$GPGSV,2,2,06,31,,,23,32,,,27*78
$GPGLL,,,,,085924.00,V,N*48
$GPRMC,085925.00,V,,,,,,,290726,,,N*76
$GPVTG,,,,,,,,,N*30
$GPGGA,085925.00,,,,,0,00,99.99,,,,,,*65
$GPGSA,A,1,,,,,,,,,,,,,99.99,99.99,99.99*30
$GPGSV,2,1,06,01,,,23,02,,,23,03,,,24,14,,,11*7F
$GPGSV,2,2,06,31,,,23,32,,,27*78
$GPGLL,,,,,085925.00,V,N*49
$GPRMC,085926.00,V,,,,,,,290726,,,N*75
$GPVTG,,,,,,,,,N*30
$GPGGA,085926.00,,,,,0,00,99.99,,,,,,*66
$GPGSA,A,1,,,,,,,,,,,,,99.99,99.99,99.99*30
$GPGSV,2,1,06,01,,,23,02,,,23,03,,,23,04,,,28*73
$GPGSV,2,2,06,31,,,22,32,,,26*78
$GPGLL,,,,,085926.00,V,N*4A
$GPRMC,085927.00,V,,,,,,,290726,,,N*74
$GPVTG,,,,,,,,,N*30
$GPGGA,085927.00,,,,,0,00,99.99,,,,,,*67
$GPGSA,A,1,,,,,,,,,,,,,99.99,99.99,99.99*30
$GPGSV,2,1,06,01,,,23,02,,,22,03,,,22,04,,,27*7C
$GPGSV,2,2,06,31,,,22,32,,,27*79
$GPGLL,,,,,085927.00,V,N*4B
$GPRMC,085928.00,V,,,,,,,290726,,,N*7B
$GPVTG,,,,,,,,,N*30
$GPGGA,085928.00,,,,,0,00,99.99,,,,,,*68
$GPGSA,A,1,,,,,,,,,,,,,99.99,99.99,99.99*30
$GPGSV,2,1,08,01,,,23,02,,,23,03,,,22,04,,,25*71
$GPGSV,2,2,08,05,,,25,14,,,20,31,,,21,32,,,26*70
$GPGLL,,,,,085928.00,V,N*44
$GPRMC,085929.00,V,,,,,,,290726,,,N*7A
$GPVTG,,,,,,,,,N*30
$GPGGA,085929.00,,,,,0,00,99.99,,,,,,*69
$GPGSA,A,1,,,,,,,,,,,,,99.99,99.99,99.99*30
$GPGSV,2,1,08,01,,,23,02,,,22,03,,,22,04,,,24*71
$GPGSV,2,2,08,05,,,24,14,,,19,31,,,21,32,,,26*7B
$GPGLL,,,,,085929.00,V,N*45
$GPRMC,085930.00,V,,,,,,,290726,,,N*72
$GPVTG,,,,,,,,,N*30
$GPGGA,085930.00,,,,,0,00,99.99,,,,,,*61
$GPGSA,A,1,,,,,,,,,,,,,99.99,99.99,99.99*30
$GPGSV,2,1,08,01,,,23,02,,,22,03,,,22,04,,,23*76
$GPGSV,2,2,08,05,,,22,14,,,17,31,,,21,32,,,26*73
$GPGLL,,,,,085930.00,V,N*4D
$GPRMC,085931.00,V,,,,,,,290726,,,N*73
$GPVTG,,,,,,,,,N*30
$GPGGA,085931.00,,,,,0,00,99.99,,,,,,*60
$GPGSA,A,1,,,,,,,,,,,,,99.99,99.99,99.99*30
$GPGSV,2,1,08,01,,,22,02,,,22,03,,,22,04,,,23*77
$GPGSV,2,2,08,05,,,21,14,,,13,31,,,21,32,,,26*74
$GPGLL,,,,,085931.00,V,N*4C
$GPRMC,085932.00,V,,,,,,,290726,,,N*70
$GPVTG,,,,,,,,,N*30
$GPGGA,085932.00,,,,,0,00,99.99,,,,,,*63
$GPGSA,A,1,,,,,,,,,,,,,99.99,99.99,99.99*30
$GPGSV,2,1,08,01,,,23,02,,,22,03,,,22,04,,,22*77
$GPGSV,2,2,08,05,,,20,14,,,13,31,,,21,32,,,26*75
$GPGLL,,,,,085932.00,V,N*4F
$GPRMC,085933.00,V,,,,,,,290726,,,N*71
$GPVTG,,,,,,,,,N*30
$GPGGA,085933.00,,,,,0,00,99.99,,,,,,*62
$GPGSA,A,1,,,,,,,,,,,,,99.99,99.99,99.99*30
$GPGSV,3,1,09,01,,,23,02,,,23,03,,,22,04,,,22*76
$GPGSV,3,2,09,05,,,18,08,,,27,14,,,15,31,,,20*71
$GPGSV,3,3,09,32,,,27*74
$GPGLL,,,,,085933.00,V,N*4E
$GPRMC,085934.00,V,,,,,,,290726,,,N*76
$GPVTG,,,,,,,,,N*30
$GPGGA,085934.00,,,,,0,00,99.99,,,,,,*65
$GPGSA,A,1,,,,,,,,,,,,,99.99,99.99,99.99*30
$GPGSV,3,1,09,01,,,23,02,,,22,03,,,22,04,,,22*77
$GPGSV,3,2,09,05,,,16,08,,,25,14,,,15,31,,,21*7C
$GPGSV,3,3,09,32,,,27*74
$GPGLL,,,,,085934.00,V,N*49
$GPRMC,085935.00,V,,,,,,,290726,,,N*77
$GPVTG,,,,,,,,,N*30
$GPGGA,085935.00,,,,,0,00,99.99,,,,,,*64
$GPGSA,A,1,,,,,,,,,,,,,99.99,99.99,99.99*30
$GPGSV,3,1,09,01,,,23,02,,,22,03,,,22,04,,,23*76
$GPGSV,3,2,09,08,,,23,09,,,26,14,,,15,31,,,21*75
$GPGSV,3,3,09,32,,,27*74
$GPGLL,,,,,085935.00,V,N*48
$GPRMC,085936.00,V,,,,,,,290726,,,N*74
$GPVTG,,,,,,,,,N*30
$GPGGA,085936.00,,,,,0,00,99.99,,,,,,*67
$GPGSA,A,1,,,,,,,,,,,,,99.99,99.99,99.99*30
$GPGSV,3,1,10,01,,,23,02,,,23,03,,,22,04,,,22*7E
$GPGSV,3,2,10,05,,,26,08,,,29,09,,,25,10,,,28*7E
$GPGSV,3,3,10,31,,,21,32,,,27*7D
$GPGLL,,,,,085936.00,V,N*4B
$GPRMC,085937.00,V,,,,,,,290726,,,N*75
$GPVTG,,,,,,,,,N*30
$GPGGA,085937.00,,,,,0,00,99.99,,,,,,*66
$GPGSA,A,1,,,,,,,,,,,,,99.99,99.99,99.99*30
$GPGSV,3,1,09,01,,,23,02,,,22,03,,,21,04,,,22*74
$GPGSV,3,2,09,05,,,22,08,,,27,09,,,24,31,,,21*77
$GPGSV,3,3,09,32,,,27*74
$GPGLL,,,,,085937.00,V,N*4A
$GPRMC,085938.00,V,,,,,,,290726,,,N*7A
$GPVTG,,,,,,,,,N*30
$GPGGA,085938.00,,,,,0,00,99.99,,,,,,*69
$GPGSA,A,1,,,,,,,,,,,,,99.99,99.99,99.99*30
$GPGSV,3,1,09,01,,,23,02,,,22,03,,,22,04,,,22*77
$GPGSV,3,2,09,05,,,19,08,,,25,09,,,22,31,,,21*7B
$GPGSV,3,3,09,32,,,27*74
$GPGLL,,,,,085938.00,V,N*45
$GPRMC,085939.00,V,,,,,,,290726,,,N*7B
$GPVTG,,,,,,,,,N*30
$GPGGA,085939.00,,,,,0,00,99.99,,,,,,*68
$GPGSA,A,1,,,,,,,,,,,,,99.99,99.99,99.99*30
$GPGSV,3,1,09,01,,,23,02,,,22,03,,,22,04,,,23*76
$GPGSV,3,2,09,05,,,24,08,,,23,09,,,22,31,,,21*73
$GPGSV,3,3,09,32,,,27*74
$GPGLL,,,,,085939.00,V,N*44
$GPRMC,085940.00,V,,,,,,,290726,,,N*75
$GPVTG,,,,,,,,,N*30
$GPGGA,085940.00,,,,,0,00,99.99,,,,,,*66
$GPGSA,A,1,,,,,,,,,,,,,99.99,99.99,99.99*30
$GPGSV,3,1,09,01,,,23,02,,,21,03,,,18,05,,,23*7D
$GPGSV,3,2,09,08,,,24,09,,,21,12,,,26,31,,,20*72
$GPGSV,3,3,09,32,,,28*7B
$GPGLL,,,,,085940.00,V,N*4A
$GPRMC,085941.00,V,,,,,,,290726,,,N*74
$GPVTG,,,,,,,,,N*30
$GPGGA,085941.00,,,,,0,00,99.99,,,,,,*67
$GPGSA,A,1,,,,,,,,,,,,,99.99,99.99,99.99*30
$GPGSV,2,1,08,01,,,23,02,,,26,08,,,23,09,,,21*77
$GPGSV,2,2,08,11,,,27,12,,,24,31,,,20,32,,,28*7A
$GPGLL,,,,,085941.00,V,N*4B
$GPRMC,085942.00,V,,,,,,,290726,,,N*77
$GPVTG,,,,,,,,,N*30
$GPGGA,085942.00,,,,,0,00,99.99,,,,,,*64
$GPGSA,A,1,,,,,,,,,,,,,99.99,99.99,99.99*30
$GPGSV,3,1,10,02,,,24,03,,,25,05,,,22,08,,,27*72
$GPGSV,3,2,10,09,,,21,11,,,25,12,,,24,13,,,27*76
$GPGSV,3,3,10,31,,,20,32,,,28*73
$GPGLL,,,,,085942.00,V,N*48
$GPRMC,085943.00,V,,,,,,,290726,,,N*76
$GPVTG,,,,,,,,,N*30
$GPGGA,085943.00,,,,,0,00,99.99,,,,,,*65
$GPGSA,A,1,,,,,,,,,,,,,99.99,99.99,99.99*30
$GPGSV,2,1,08,01,,,22,03,,,23,05,,,22,08,,,26*78
$GPGSV,2,2,08,09,,,22,13,,,25,31,,,21,32,,,27*78
$GPGLL,,,,,085943.00,V,N*49
$GPRMC,085944.00,V,,,,,,,290726,,,N*71
$GPVTG,,,,,,,,,N*30
$GPGGA,085944.00,,,,,0,00,99.99,,,,,,*62
$GPGSA,A,1,,,,,,,,,,,,,99.99,99.99,99.99*30
$GPGSV,2,1,08,01,,,23,05,,,23,08,,,24,09,,,24*77
$GPGSV,2,2,08,12,,,25,13,,,22,31,,,21,32,,,27*72
$GPGLL,,,,,085944.00,V,N*4E
$GPRMC,085945.00,V,,,,,,,290726,,,N*70
$GPVTG,,,,,,,,,N*30
$GPGGA,085945.00,,,,,0,00,99.99,,,,,,*63
$GPGSA,A,1,,,,,,,,,,,,,99.99,99.99,99.99*30
$GPGSV,3,1,09,01,,,22,05,,,22,08,,,23,09,,,24*70
$GPGSV,3,2,09,12,,,23,14,,,27,15,,,25,31,,,21*71
$GPGSV,3,3,09,32,,,27*74
$GPGLL,,,,,085945.00,V,N*4F
$GPRMC,085946.00,V,,,,,,,290726,,,N*73
$GPVTG,,,,,,,,,N*30
$GPGGA,085946.00,,,,,0,00,99.99,,,,,,*60
$GPGSA,A,1,,,,,,,,,,,,,99.99,99.99,99.99*30
$GPGSV,3,1,09,01,,,22,05,,,22,08,,,23,09,,,22*76
$GPGSV,3,2,09,12,,,22,14,,,26,15,,,25,31,,,20*70
$GPGSV,3,3,09,32,,,27*74
$GPGLL,,,,,085946.00,V,N*4C
$GPRMC,085947.00,V,,,,,,,290726,,,N*72
$GPVTG,,,,,,,,,N*30
$GPGGA,085947.00,,,,,0,00,99.99,,,,,,*61
$GPGSA,A,1,,,,,,,,,,,,,99.99,99.99,99.99*30
$GPGSV,3,1,09,01,,,22,05,,,21,08,,,24,09,,,20*70
$GPGSV,3,2,09,12,,,22,14,,,24,15,,,29,31,,,21*7F
$GPGSV,3,3,09,32,,,27*74
$GPGLL,,,,,085947.00,V,N*4D
$GPRMC,085948.00,V,,,,,,,290726,,,N*7D
$GPVTG,,,,,,,,,N*30
$GPGGA,085948.00,,,,,0,00,99.99,,,,,,*6E
$GPGSA,A,1,,,,,,,,,,,,,99.99,99.99,99.99*30
$GPGSV,2,1,08,05,,,22,08,,,23,09,,,17,12,,,22*72
$GPGSV,2,2,08,14,,,24,15,,,25,31,,,21,32,,,27*74
$GPGLL,,,,,085948.00,V,N*42
$GPRMC,085949.00,V,,,,,,,290726,,,N*7C
$GPVTG,,,,,,,,,N*30
$GPGGA,085949.00,,,,,0,00,99.99,,,,,,*6F
$GPGSA,A,1,,,,,,,,,,,,,99.99,99.99,99.99*30
$GPGSV,2,1,07,01,,,23,05,,,22,08,,,22,14,,,23*74
$GPGSV,2,2,07,17,,,21,31,,,21,32,,,27*7E
$GPGLL,,,,,085949.00,V,N*43
$GPRMC,085950.00,V,,,,,,,290726,,,N*74
$GPVTG,,,,,,,,,N*30
$GPGGA,085950.00,,,,,0,00,99.99,,,,,,*67
$GPGSA,A,1,,,,,,,,,,,,,99.99,99.99,99.99*30
$GPGSV,3,1,10,01,,,22,05,,,22,08,,,23,14,,,23*73
$GPGSV,3,2,10,15,,,25,16,,,26,17,,,24,18,,,28*7A
$GPGSV,3,3,10,31,,,22,32,,,26*7F
$GPGLL,,,,,085950.00,V,N*4B
$GPRMC,085951.00,V,,,,,,,290726,,,N*75
$GPVTG,,,,,,,,,N*30
$GPGGA,085951.00,,,,,0,00,99.99,,,,,,*66
$GPGSA,A,1,,,,,,,,,,,,,99.99,99.99,99.99*30
$GPGSV,2,1,08,01,,,23,05,,,21,08,,,24,14,,,23*7E
$GPGSV,2,2,08,16,,,24,17,,,23,31,,,22,32,,,26*70
$GPGLL,,,,,085951.00,V,N*4A
$GPRMC,085952.00,V,,,,,,,290726,,,N*76
$GPVTG,,,,,,,,,N*30
$GPGGA,085952.00,,,,,0,00,99.99,,,,,,*65
$GPGSA,A,1,,,,,,,,,,,,,99.99,99.99,99.99*30
$GPGSV,2,1,08,01,,,22,05,,,22,14,,,23,16,,,20*77
$GPGSV,2,2,08,17,,,22,19,,,20,31,,,22,32,,,26*7A
$GPGLL,,,,,085952.00,V,N*49
$GPRMC,085953.00,V,,,,,,,290726,,,N*77
$GPVTG,,,,,,,,,N*30
$GPGGA,085953.00,,,,,0,00,99.99,,,,,,*64
$GPGSA,A,1,,,,,,,,,,,,,99.99,99.99,99.99*30
$GPGSV,2,1,07,01,,,22,05,,,21,14,,,23,16,,,15*7D
$GPGSV,2,2,07,19,,,22,31,,,21,32,,,25*71
$GPGLL,,,,,085953.00,V,N*48
$GPRMC,085954.00,V,,,,,,,290726,,,N*70
$GPVTG,,,,,,,,,N*30
$GPGGA,085954.00,,,,,0,00,99.99,,,,,,*63
$GPGSA,A,1,,,,,,,,,,,,,99.99,99.99,99.99*30
$GPGSV,3,1,09,01,,,22,05,,,21,14,,,23,16,,,25*71
$GPGSV,3,2,09,17,,,25,19,,,21,20,,,29,31,,,21*73
$GPGSV,3,3,09,32,,,25*76
$GPGLL,,,,,085954.00,V,N*4F
$GPRMC,085955.00,V,,,,,,,290726,,,N*71
$GPVTG,,,,,,,,,N*30
$GPGGA,085955.00,,,,,0,00,99.99,,,,,,*62
$GPGSA,A,1,,,,,,,,,,,,,99.99,99.99,99.99*30
$GPGSV,2,1,08,01,,,22,05,,,21,14,,,23,16,,,23*77
$GPGSV,2,2,08,17,,,24,19,,,21,31,,,21,32,,,26*7E
$GPGLL,,,,,085955.00,V,N*4E
$GPRMC,085956.00,V,,,,,,,290726,,,N*72
$GPVTG,,,,,,,,,N*30
$GPGGA,085956.00,,,,,0,00,99.99,,,,,,*61
$GPGSA,A,1,,,,,,,,,,,,,99.99,99.99,99.99*30
$GPGSV,3,1,09,01,,,22,05,,,23,14,,,24,16,,,22*73
$GPGSV,3,2,09,17,,,23,19,,,18,21,,,26,31,,,22*72
$GPGSV,3,3,09,32,,,27*74
$GPGLL,,,,,085956.00,V,N*4D
$GPRMC,085957.00,V,,,,,,,290726,,,N*73
$GPVTG,,,,,,,,,N*30
$GPGGA,085957.00,,,,,0,00,99.99,,,,,,*60
$GPGSA,A,1,,,,,,,,,,,,,99.99,99.99,99.99*30
$GPGSV,2,1,08,01,,,22,05,,,22,14,,,24,17,,,22*73
$GPGSV,2,2,08,19,,,16,21,,,24,31,,,22,32,,,27*7D
$GPGLL,,,,,085957.00,V,N*4C
$GPRMC,085958.00,V,,,,,,,290726,,,N*7C
$GPVTG,,,,,,,,,N*30
$GPGGA,085958.00,,,,,0,00,99.99,,,,,,*6F
$GPGSA,A,1,,,,,,,,,,,,,99.99,99.99,99.99*30
$GPGSV,2,1,08,01,,,22,05,,,22,14,,,23,17,,,22*74
$GPGSV,2,2,08,19,,,14,21,,,23,31,,,22,32,,,27*78
$GPGLL,,,,,085958.00,V,N*43
$GPRMC,085959.00,V,,,,,,,290726,,,N*7D
$GPVTG,,,,,,,,,N*30
$GPGGA,085959.00,,,,,0,00,99.99,,,,,,*6E
$GPGSA,A,1,,,,,,,,,,,,,99.99,99.99,99.99*30
$GPGSV,2,1,08,01,,,22,05,,,21,14,,,23,17,,,19*7F
$GPGSV,2,2,08,19,,,13,21,,,22,31,,,22,32,,,27*7E
$GPGLL,,,,,085959.00,V,N*42
$GPRMC,090000.00,V,,,,,,,290726,,,N*7C
$GPVTG,,,,,,,,,N*30
$GPGGA,090000.00,,,,,0,00,99.99,,,,,,*6F
$GPGSA,A,1,,,,,,,,,,,,,99.99,99.99,99.99*30
$GPGSV,3,1,09,01,,,22,05,,,22,14,,,24,19,,,13*7F
$GPGSV,3,2,09,21,,,22,22,,,23,23,,,25,31,,,21*74
$GPGSV,3,3,09,32,,,28*7B
$GPGLL,,,,,090000.00,V,N*43
$GPRMC,090001.01,V,,,,,,,290726,,,N*7C
$GPVTG,,,,,,,,,N*30
$GPGGA,090001.01,,,,,0,00,99.99,,,,,,*6F
$GPGSA,A,1,,,,,,,,,,,,,99.99,99.99,99.99*30
$GPGSV,3,1,10,01,,,23,05,,,22,14,,,24,17,,,22*7A
$GPGSV,3,2,10,21,,,19,22,,,23,23,,,25,24,,,22*73
$GPGSV,3,3,10,31,,,22,32,,,28*71
$GPGLL,,,,,090001.01,V,N*43
$GPRMC,090002.00,V,,,,,,,290726,,,N*7E
$GPVTG,,,,,,,,,N*30
$GPGGA,090002.00,,,,,0,00,99.99,,,,,,*6D
$GPGSA,A,1,,,,,,,,,,,,,99.99,99.99,99.99*30
$GPGSV,3,1,09,01,,,23,05,,,21,14,,,24,17,,,23*70
$GPGSV,3,2,09,21,,,26,22,,,22,23,,,24,31,,,21*70
$GPGSV,3,3,09,32,,,28*7B
$GPGLL,,,,,090002.00,V,N*41
